[{"OBJECT_NAME":"SAMSAT-IONOSPHERE (RS75S)","OBJECT_ID":"2024-199BB","EPOCH":"2026-03-09T22:17:42.664992","MEAN_MOTION":15.49563395,"ECCENTRICITY":0.00086255,"INCLINATION":97.3115,"RA_OF_ASC_NODE":302.9928,"ARG_OF_PERICENTER":292.4017,"MEAN_ANOMALY":67.632,"EPHEMERIS_TYPE":0,"CLASSIFICATION_TYPE":"U","NORAD_CAT_ID":61784,"ELEMENT_SET_NO":999,"REV_AT_EPOCH":12215,"BSTAR":0.00081689278,"MEAN_MOTION_DOT":0.00045244,"MEAN_MOTION_DDOT":0},{"OBJECT_NAME":"STARLINK-36638","OBJECT_ID":"2026-018F","EPOCH":"2026-03-09T22:00:01.999584","MEAN_MOTION":15.62498601,"ECCENTRICITY":0.00018934,"INCLINATION":97.284,"RA_OF_ASC_NODE":134.79,"ARG_OF_PERICENTER":66.192,"MEAN_ANOMALY":51.2719,"EPHEMERIS_TYPE":0,"CLASSIFICATION_TYPE":"U","NORAD_CAT_ID":67594,"ELEMENT_SET_NO":999,"REV_AT_EPOCH":604,"BSTAR":-0.02483464,"MEAN_MOTION_DOT":-0.01946545,"MEAN_MOTION_DDOT":0}]
